[
  {
    "CCSDS_OMM_VERS": "3.0",
    "COMMENT": "GENERATED VIA SPACE-TRACK.ORG API",
    "CREATION_DATE": "2026-02-19T17:59:09",
    "ORIGINATOR": "18 SPCS",
    "OBJECT_NAME": "STEP CUBE LAB-II",
    "OBJECT_ID": "2022-065D",
    "CENTER_NAME": "EARTH",
    "REF_FRAME": "TEME",
    "TIME_SYSTEM": "UTC",
    "MEAN_ELEMENT_THEORY": "SGP4",
    "EPOCH": "2026-02-19T15:38:53.677824",
    "MEAN_MOTION": "14.63072994",
    "ECCENTRICITY": "0.00092911",
    "INCLINATION": "98.2012",
    "RA_OF_ASC_NODE": "195.0551",
    "ARG_OF_PERICENTER": "39.8745",
    "MEAN_ANOMALY": "320.3138",
    "EPHEMERIS_TYPE": "0",
    "CLASSIFICATION_TYPE": "U",
    "NORAD_CAT_ID": "52897",
    "ELEMENT_SET_NO": "999",
    "REV_AT_EPOCH": "19431",
    "BSTAR": "0.00021540279000",
    "MEAN_MOTION_DOT": "0.00001058",
    "MEAN_MOTION_DDOT": "0.0000000000000",
    "SEMIMAJOR_AXIS": "7061.406",
    "PERIOD": "98.423",
    "APOAPSIS": "689.832",
    "PERIAPSIS": "676.710",
    "OBJECT_TYPE": "PAYLOAD",
    "RCS_SIZE": "MEDIUM",
    "COUNTRY_CODE": "SKOR",
    "LAUNCH_DATE": "2022-06-21",
    "SITE": "NSC",
    "DECAY_DATE": null,
    "FILE": "5039972",
    "GP_ID": "313175741",
    "TLE_LINE0": "0 STEP CUBE LAB-II",
    "TLE_LINE1": "1 52897U 22065D   26050.65201016  .00001058  00000-0  21540-3 0  9999",
    "TLE_LINE2": "2 52897  98.2012 195.0551 0009291  39.8745 320.3138 14.63072994194311"
  },
  {
    "CCSDS_OMM_VERS": "3.0",
    "COMMENT": "GENERATED VIA SPACE-TRACK.ORG API",
    "CREATION_DATE": "2026-02-19T17:59:09",
    "ORIGINATOR": "18 SPCS",
    "OBJECT_NAME": "KOMPSAT 2",
    "OBJECT_ID": "2006-031A",
    "CENTER_NAME": "EARTH",
    "REF_FRAME": "TEME",
    "TIME_SYSTEM": "UTC",
    "MEAN_ELEMENT_THEORY": "SGP4",
    "EPOCH": "2026-02-19T15:38:51.283680",
    "MEAN_MOTION": "14.64571666",
    "ECCENTRICITY": "0.00158064",
    "INCLINATION": "97.8282",
    "RA_OF_ASC_NODE": "240.7766",
    "ARG_OF_PERICENTER": "86.6047",
    "MEAN_ANOMALY": "350.8681",
    "EPHEMERIS_TYPE": "0",
    "CLASSIFICATION_TYPE": "U",
    "NORAD_CAT_ID": "29268",
    "ELEMENT_SET_NO": "999",
    "REV_AT_EPOCH": "4427",
    "BSTAR": "0.00008900229400",
    "MEAN_MOTION_DOT": "0.00000428",
    "MEAN_MOTION_DDOT": "0.0000000000000",
    "SEMIMAJOR_AXIS": "7056.588",
    "PERIOD": "98.322",
    "APOAPSIS": "689.607",
    "PERIAPSIS": "667.299",
    "OBJECT_TYPE": "PAYLOAD",
    "RCS_SIZE": "LARGE",
    "COUNTRY_CODE": "SKOR",
    "LAUNCH_DATE": "2006-07-28",
    "SITE": "PKMTR",
    "DECAY_DATE": null,
    "FILE": "5039972",
    "GP_ID": "313163618",
    "TLE_LINE0": "0 KOMPSAT 2",
    "TLE_LINE1": "1 29268U 06031A   26050.65198245  .00000428  00000-0  89002-4 0  9997",
    "TLE_LINE2": "2 29268  97.8282 240.7766 0015806  86.6047 350.8681 14.64571666 44272"
  },
  {
    "CCSDS_OMM_VERS": "3.0",
    "COMMENT": "GENERATED VIA SPACE-TRACK.ORG API",
    "CREATION_DATE": "2026-02-19T17:59:09",
    "ORIGINATOR": "18 SPCS",
    "OBJECT_NAME": "STARLINK-4388",
    "OBJECT_ID": "2022-105D",
    "CENTER_NAME": "EARTH",
    "REF_FRAME": "TEME",
    "TIME_SYSTEM": "UTC",
    "MEAN_ELEMENT_THEORY": "SGP4",
    "EPOCH": "2026-02-19T15:37:21.020736",
    "MEAN_MOTION": "15.05645242",
    "ECCENTRICITY": "0.00026568",
    "INCLINATION": "97.6020",
    "RA_OF_ASC_NODE": "293.4415",
    "ARG_OF_PERICENTER": "92.2655",
    "MEAN_ANOMALY": "267.8876",
    "EPHEMERIS_TYPE": "0",
    "CLASSIFICATION_TYPE": "U",
    "NORAD_CAT_ID": "53651",
    "ELEMENT_SET_NO": "999",
    "REV_AT_EPOCH": "19058",
    "BSTAR": "-0.00001305308000",
    "MEAN_MOTION_DOT": "-0.00000249",
    "MEAN_MOTION_DDOT": "0.0000000000000",
    "SEMIMAJOR_AXIS": "6927.663",
    "PERIOD": "95.640",
    "APOAPSIS": "551.368",
    "PERIAPSIS": "547.687",
    "OBJECT_TYPE": "PAYLOAD",
    "RCS_SIZE": "LARGE",
    "COUNTRY_CODE": "US",
    "LAUNCH_DATE": "2022-08-31",
    "SITE": "AFWTR",
    "DECAY_DATE": null,
    "FILE": "5039972",
    "GP_ID": "313175490",
    "TLE_LINE0": "0 STARLINK-4388",
    "TLE_LINE1": "1 53651U 22105D   26050.65093774 -.00000249  00000-0 -13053-4 0  9997",
    "TLE_LINE2": "2 53651  97.6020 293.4415 0002657  92.2655 267.8876 15.05645242190584"
  },
  {
    "CCSDS_OMM_VERS": "3.0",
    "COMMENT": "GENERATED VIA SPACE-TRACK.ORG API",
    "CREATION_DATE": "2026-02-19T17:59:09",
    "ORIGINATOR": "18 SPCS",
    "OBJECT_NAME": "TIANMU-1 17",
    "OBJECT_ID": "2024-004C",
    "CENTER_NAME": "EARTH",
    "REF_FRAME": "TEME",
    "TIME_SYSTEM": "UTC",
    "MEAN_ELEMENT_THEORY": "SGP4",
    "EPOCH": "2026-02-19T15:37:20.039232",
    "MEAN_MOTION": "15.25612668",
    "ECCENTRICITY": "0.00057093",
    "INCLINATION": "97.4627",
    "RA_OF_ASC_NODE": "236.6992",
    "ARG_OF_PERICENTER": "56.1557",
    "MEAN_ANOMALY": "304.0223",
    "EPHEMERIS_TYPE": "0",
    "CLASSIFICATION_TYPE": "U",
    "NORAD_CAT_ID": "58702",
    "ELEMENT_SET_NO": "999",
    "REV_AT_EPOCH": "11784",
    "BSTAR": "0.00026140091000",
    "MEAN_MOTION_DOT": "0.00006573",
    "MEAN_MOTION_DDOT": "0.0000000000000",
    "SEMIMAJOR_AXIS": "6867.083",
    "PERIOD": "94.388",
    "APOAPSIS": "492.869",
    "PERIAPSIS": "485.028",
    "OBJECT_TYPE": "PAYLOAD",
    "RCS_SIZE": "LARGE",
    "COUNTRY_CODE": "PRC",
    "LAUNCH_DATE": "2024-01-05",
    "SITE": "JSC",
    "DECAY_DATE": null,
    "FILE": "5039972",
    "GP_ID": "313179407",
    "TLE_LINE0": "0 TIANMU-1 17",
    "TLE_LINE1": "1 58702U 24004C   26050.65092638  .00006573  00000-0  26140-3 0  9991",
    "TLE_LINE2": "2 58702  97.4627 236.6992 0005709  56.1557 304.0223 15.25612668117843"
  },
  {
    "CCSDS_OMM_VERS": "3.0",
    "COMMENT": "GENERATED VIA SPACE-TRACK.ORG API",
    "CREATION_DATE": "2026-02-19T17:59:09",
    "ORIGINATOR": "18 SPCS",
    "OBJECT_NAME": "AAC-HSI-SAT1",
    "OBJECT_ID": "2023-054AZ",
    "CENTER_NAME": "EARTH",
    "REF_FRAME": "TEME",
    "TIME_SYSTEM": "UTC",
    "MEAN_ELEMENT_THEORY": "SGP4",
    "EPOCH": "2026-02-19T15:37:06.342240",
    "MEAN_MOTION": "15.11998203",
    "ECCENTRICITY": "0.00102699",
    "INCLINATION": "97.3866",
    "RA_OF_ASC_NODE": "290.9892",
    "ARG_OF_PERICENTER": "162.0017",
    "MEAN_ANOMALY": "198.1580",
    "EPHEMERIS_TYPE": "0",
    "CLASSIFICATION_TYPE": "U",
    "NORAD_CAT_ID": "56225",
    "ELEMENT_SET_NO": "999",
    "REV_AT_EPOCH": "15760",
    "BSTAR": "0.00011914864000",
    "MEAN_MOTION_DOT": "0.00001985",
    "MEAN_MOTION_DDOT": "0.0000000000000",
    "SEMIMAJOR_AXIS": "6908.244",
    "PERIOD": "95.238",
    "APOAPSIS": "537.204",
    "PERIAPSIS": "523.014",
    "OBJECT_TYPE": "PAYLOAD",
    "RCS_SIZE": "MEDIUM",
    "COUNTRY_CODE": "UK",
    "LAUNCH_DATE": "2023-04-15",
    "SITE": "AFWTR",
    "DECAY_DATE": null,
    "FILE": "5039972",
    "GP_ID": "313177922",
    "TLE_LINE0": "0 AAC-HSI-SAT1",
    "TLE_LINE1": "1 56225U 23054AZ  26050.65076785  .00001985  00000-0  11915-3 0  9994",
    "TLE_LINE2": "2 56225  97.3866 290.9892 0010270 162.0017 198.1580 15.11998203157607"
  },
  {
    "CCSDS_OMM_VERS": "3.0",
    "COMMENT": "GENERATED VIA SPACE-TRACK.ORG API",
    "CREATION_DATE": "2026-02-19T17:16:28",
    "ORIGINATOR": "18 SPCS",
    "OBJECT_NAME": "CSG-1",
    "OBJECT_ID": "2019-092A",
    "CENTER_NAME": "EARTH",
    "REF_FRAME": "TEME",
    "TIME_SYSTEM": "UTC",
    "MEAN_ELEMENT_THEORY": "SGP4",
    "EPOCH": "2026-02-19T15:36:44.085600",
    "MEAN_MOTION": "14.82145843",
    "ECCENTRICITY": "0.00013760",
    "INCLINATION": "97.8855",
    "RA_OF_ASC_NODE": "235.9502",
    "ARG_OF_PERICENTER": "88.3348",
    "MEAN_ANOMALY": "271.8022",
    "EPHEMERIS_TYPE": "0",
    "CLASSIFICATION_TYPE": "U",
    "NORAD_CAT_ID": "44873",
    "ELEMENT_SET_NO": "999",
    "REV_AT_EPOCH": "33406",
    "BSTAR": "0.00007211300000",
    "MEAN_MOTION_DOT": "0.00000522",
    "MEAN_MOTION_DDOT": "0.0000000000000",
    "SEMIMAJOR_AXIS": "7000.696",
    "PERIOD": "97.156",
    "APOAPSIS": "623.524",
    "PERIAPSIS": "621.598",
    "OBJECT_TYPE": "PAYLOAD",
    "RCS_SIZE": "LARGE",
    "COUNTRY_CODE": "IT",
    "LAUNCH_DATE": "2019-12-18",
    "SITE": "FRGUI",
    "DECAY_DATE": null,
    "FILE": "5039951",
    "GP_ID": "313155228",
    "TLE_LINE0": "0 CSG-1",
    "TLE_LINE1": "1 44873U 19092A   26050.65051025  .00000522  00000-0  72113-4 0  9991",
    "TLE_LINE2": "2 44873  97.8855 235.9502 0001376  88.3348 271.8022 14.82145843334065"
  },
  {
    "CCSDS_OMM_VERS": "3.0",
    "COMMENT": "GENERATED VIA SPACE-TRACK.ORG API",
    "CREATION_DATE": "2026-02-19T17:06:44",
    "ORIGINATOR": "18 SPCS",
    "OBJECT_NAME": "COSMOS 2550",
    "OBJECT_ID": "2021-056A",
    "CENTER_NAME": "EARTH",
    "REF_FRAME": "TEME",
    "TIME_SYSTEM": "UTC",
    "MEAN_ELEMENT_THEORY": "SGP4",
    "EPOCH": "2026-02-19T15:36:39.261888",
    "MEAN_MOTION": "15.33826402",
    "ECCENTRICITY": "0.00083690",
    "INCLINATION": "67.1419",
    "RA_OF_ASC_NODE": "95.4987",
    "ARG_OF_PERICENTER": "270.0472",
    "MEAN_ANOMALY": "89.9724",
    "EPHEMERIS_TYPE": "0",
    "CLASSIFICATION_TYPE": "U",
    "NORAD_CAT_ID": "48865",
    "ELEMENT_SET_NO": "999",
    "REV_AT_EPOCH": "26069",
    "BSTAR": "0.00000354960000",
    "MEAN_MOTION_DOT": "-0.00000075",
    "MEAN_MOTION_DDOT": "0.0000000000000",
    "SEMIMAJOR_AXIS": "6842.546",
    "PERIOD": "93.883",
    "APOAPSIS": "470.137",
    "PERIAPSIS": "458.684",
    "OBJECT_TYPE": "PAYLOAD",
    "RCS_SIZE": "LARGE",
    "COUNTRY_CODE": "CIS",
    "LAUNCH_DATE": "2021-06-25",
    "SITE": "PKMTR",
    "DECAY_DATE": null,
    "FILE": "5039949",
    "GP_ID": "313155222",
    "TLE_LINE0": "0 COSMOS 2550",
    "TLE_LINE1": "1 48865U 21056A   26050.65045442 -.00000075  00000-0  35496-5 0  9993",
    "TLE_LINE2": "2 48865  67.1419  95.4987 0008369 270.0472  89.9724 15.33826402260697"
  }
]